{
    "links": {
        "self": "http://www.neowsapp.com/rest/v1/neo/3469640?api_key=iIulBulltgU6a56xZRHN4H3l9WmuAYTsLGpBGhQ2"
    },
    "id": "3469640",
    "neo_reference_id": "3469640",
    "name": "(2009 SS171)",
    "designation": "2009 SS171",
    "nasa_jpl_url": "http://ssd.jpl.nasa.gov/sbdb.cgi?sstr=3469640",
    "absolute_magnitude_h": 24.8,
    "estimated_diameter": {
        "kilometers": {
            "estimated_diameter_min": 0.0291443905,
            "estimated_diameter_max": 0.0651688382
        },
        "meters": {
            "estimated_diameter_min": 29.1443904535,
            "estimated_diameter_max": 65.1688382168
        },
        "miles": {
            "estimated_diameter_min": 0.018109479,
            "estimated_diameter_max": 0.0404940262
        },
        "feet": {
            "estimated_diameter_min": 95.6180819754,
            "estimated_diameter_max": 213.8085311752
        }
    },
    "is_potentially_hazardous_asteroid": false,
    "close_approach_data": [
        {
            "close_approach_date": "2009-10-03",
            "close_approach_date_full": "2009-Oct-03 00:31",
            "epoch_date_close_approach": 1254529860000,
            "relative_velocity": {
                "kilometers_per_second": "9.3046582567",
                "kilometers_per_hour": "33496.7697240477",
                "miles_per_hour": "20813.5900543673"
            },
            "miss_distance": {
                "astronomical": "0.1033391861",
                "lunar": "40.1989433929",
                "kilometers": "15459322.128093607",
                "miles": "9605977.3353094966"
            },
            "orbiting_body": "Earth"
        }
    ],
    "orbital_data": {
        "orbit_id": "7",
        "orbit_determination_date": "2017-04-06 08:59:45",
        "first_observation_date": "2009-09-28",
        "last_observation_date": "2009-10-11",
        "data_arc_in_days": 13,
        "observations_used": 20,
        "orbit_uncertainty": "9",
        "minimum_orbit_intersection": ".102964",
        "jupiter_tisserand_invariant": "4.193",
        "epoch_osculation": "2455104.5",
        "eccentricity": ".3336975781119691",
        "semi_major_axis": "1.637819197594517",
        "inclination": "16.14545741757327",
        "ascending_node_longitude": "185.719776941135",
        "orbital_period": "765.5919581349187",
        "perihelion_distance": "1.091282897971938",
        "perihelion_argument": "199.7503981690089",
        "aphelion_distance": "2.184355497217096",
        "perihelion_time": "2455123.550201213909",
        "mean_anomaly": "351.0421310410387",
        "mean_motion": ".4702243749751587",
        "equinox": "J2000",
        "orbit_class": {
            "orbit_class_type": "AMO",
            "orbit_class_description": "Near-Earth asteroid orbits similar to that of 1221 Amor",
            "orbit_class_range": "1.017 AU < q (perihelion) < 1.3 AU"
        }
    },
    "is_sentry_object": false
}